[{"OBJECT_NAME":"STARLINK-3673","OBJECT_ID":"2022-029F","EPOCH":"2026-03-06T08:41:38.139936","MEAN_MOTION":15.08849988,"ECCENTRICITY":0.00015651,"INCLINATION":53.2153,"RA_OF_ASC_NODE":104.0707,"ARG_OF_PERICENTER":85.3599,"MEAN_ANOMALY":274.7572,"EPHEMERIS_TYPE":0,"CLASSIFICATION_TYPE":"U","NORAD_CAT_ID":52093,"ELEMENT_SET_NO":999,"REV_AT_EPOCH":22015,"BSTAR":1.6536706e-5,"MEAN_MOTION_DOT":-2.5e-7,"MEAN_MOTION_DDOT":0},{"OBJECT_NAME":"STARLINK-3714","OBJECT_ID":"2022-029G","EPOCH":"2026-03-06T08:45:32.701248","MEAN_MOTION":15.08842415,"ECCENTRICITY":0.0001207,"INCLINATION":53.2168,"RA_OF_ASC_NODE":104.0482,"ARG_OF_PERICENTER":63.1156,"MEAN_ANOMALY":296.9959,"EPHEMERIS_TYPE":0,"CLASSIFICATION_TYPE":"U","NORAD_CAT_ID":52094,"ELEMENT_SET_NO":999,"REV_AT_EPOCH":22015,"BSTAR":0.00010793196,"MEAN_MOTION_DOT":1.43e-5,"MEAN_MOTION_DDOT":0},{"OBJECT_NAME":"STARLINK-3701","OBJECT_ID":"2022-029H","EPOCH":"2026-03-07T01:58:55.534080","MEAN_MOTION":15.0884368,"ECCENTRICITY":0.0001333,"INCLINATION":53.2166,"RA_OF_ASC_NODE":100.8269,"ARG_OF_PERICENTER":74.9176,"MEAN_ANOMALY":285.1963,"EPHEMERIS_TYPE":0,"CLASSIFICATION_TYPE":"U","NORAD_CAT_ID":52095,"ELEMENT_SET_NO":999,"REV_AT_EPOCH":22026,"BSTAR":0.0009549,"MEAN_MOTION_DOT":0.00014943,"MEAN_MOTION_DDOT":0},{"OBJECT_NAME":"STARLINK-3717","OBJECT_ID":"2022-029J","EPOCH":"2026-03-07T01:28:25.168224","MEAN_MOTION":15.08841955,"ECCENTRICITY":0.000165,"INCLINATION":53.2173,"RA_OF_ASC_NODE":90.918,"ARG_OF_PERICENTER":89.4725,"MEAN_ANOMALY":270.6456,"EPHEMERIS_TYPE":0,"CLASSIFICATION_TYPE":"U","NORAD_CAT_ID":52096,"ELEMENT_SET_NO":999,"REV_AT_EPOCH":22038,"BSTAR":3.7366e-5,"MEAN_MOTION_DOT":3.07e-6,"MEAN_MOTION_DDOT":0},{"OBJECT_NAME":"STARLINK-3665","OBJECT_ID":"2022-029L","EPOCH":"2026-03-07T02:04:11.289792","MEAN_MOTION":15.08840768,"ECCENTRICITY":0.0001307,"INCLINATION":53.2158,"RA_OF_ASC_NODE":100.8081,"ARG_OF_PERICENTER":93.5329,"MEAN_ANOMALY":266.5812,"EPHEMERIS_TYPE":0,"CLASSIFICATION_TYPE":"U","NORAD_CAT_ID":52098,"ELEMENT_SET_NO":999,"REV_AT_EPOCH":22026,"BSTAR":6.3978e-5,"MEAN_MOTION_DOT":7.3e-6,"MEAN_MOTION_DDOT":0},{"OBJECT_NAME":"STARLINK-3702","OBJECT_ID":"2022-029N","EPOCH":"2026-03-06T11:35:08.392128","MEAN_MOTION":15.08825123,"ECCENTRICITY":0.00017206,"INCLINATION":53.2189,"RA_OF_ASC_NODE":103.5219,"ARG_OF_PERICENTER":100.6633,"MEAN_ANOMALY":259.4553,"EPHEMERIS_TYPE":0,"CLASSIFICATION_TYPE":"U","NORAD_CAT_ID":52100,"ELEMENT_SET_NO":999,"REV_AT_EPOCH":22017,"BSTAR":8.9117868e-5,"MEAN_MOTION_DOT":1.13e-5,"MEAN_MOTION_DDOT":0},{"OBJECT_NAME":"STARLINK-3703","OBJECT_ID":"2022-029P","EPOCH":"2026-03-06T08:40:17.148576","MEAN_MOTION":15.08841656,"ECCENTRICITY":0.00014377,"INCLINATION":53.2178,"RA_OF_ASC_NODE":104.2569,"ARG_OF_PERICENTER":91.2642,"MEAN_ANOMALY":268.8515,"EPHEMERIS_TYPE":0,"CLASSIFICATION_TYPE":"U","NORAD_CAT_ID":52101,"ELEMENT_SET_NO":999,"REV_AT_EPOCH":22014,"BSTAR":1.9787025e-5,"MEAN_MOTION_DOT":2.7e-7,"MEAN_MOTION_DDOT":0},{"OBJECT_NAME":"STARLINK-3709","OBJECT_ID":"2022-029Q","EPOCH":"2026-03-07T01:56:17.899872","MEAN_MOTION":15.08842809,"ECCENTRICITY":0.0001279,"INCLINATION":53.2164,"RA_OF_ASC_NODE":90.833,"ARG_OF_PERICENTER":95.6475,"MEAN_ANOMALY":264.4663,"EPHEMERIS_TYPE":0,"CLASSIFICATION_TYPE":"U","NORAD_CAT_ID":52102,"ELEMENT_SET_NO":999,"REV_AT_EPOCH":22039,"BSTAR":-4.92e-5,"MEAN_MOTION_DOT":-1.071e-5,"MEAN_MOTION_DDOT":0},{"OBJECT_NAME":"STARLINK-3705","OBJECT_ID":"2022-029R","EPOCH":"2026-03-07T02:53:12.614496","MEAN_MOTION":15.08842818,"ECCENTRICITY":0.0001243,"INCLINATION":53.2164,"RA_OF_ASC_NODE":90.6556,"ARG_OF_PERICENTER":88.3212,"MEAN_ANOMALY":271.7923,"EPHEMERIS_TYPE":0,"CLASSIFICATION_TYPE":"U","NORAD_CAT_ID":52103,"ELEMENT_SET_NO":999,"REV_AT_EPOCH":22039,"BSTAR":0.00010904,"MEAN_MOTION_DOT":1.448e-5,"MEAN_MOTION_DDOT":0},{"OBJECT_NAME":"STARLINK-3706","OBJECT_ID":"2022-029T","EPOCH":"2026-03-07T01:08:36.375936","MEAN_MOTION":15.088365,"ECCENTRICITY":0.0001244,"INCLINATION":53.217,"RA_OF_ASC_NODE":90.9815,"ARG_OF_PERICENTER":84.7751,"MEAN_ANOMALY":275.3383,"EPHEMERIS_TYPE":0,"CLASSIFICATION_TYPE":"U","NORAD_CAT_ID":52105,"ELEMENT_SET_NO":999,"REV_AT_EPOCH":22038,"BSTAR":9.0927e-5,"MEAN_MOTION_DOT":1.159e-5,"MEAN_MOTION_DDOT":0},{"OBJECT_NAME":"STARLINK-3670","OBJECT_ID":"2022-029U","EPOCH":"2026-03-06T19:16:09.302880","MEAN_MOTION":15.0883769,"ECCENTRICITY":0.0001239,"INCLINATION":53.2167,"RA_OF_ASC_NODE":102.0804,"ARG_OF_PERICENTER":92.4162,"MEAN_ANOMALY":267.6972,"EPHEMERIS_TYPE":0,"CLASSIFICATION_TYPE":"U","NORAD_CAT_ID":52106,"ELEMENT_SET_NO":999,"REV_AT_EPOCH":22021,"BSTAR":6.808e-5,"MEAN_MOTION_DOT":7.96e-6,"MEAN_MOTION_DDOT":0},{"OBJECT_NAME":"STARLINK-3658","OBJECT_ID":"2022-029V","EPOCH":"2026-03-07T02:37:18.813792","MEAN_MOTION":15.08840457,"ECCENTRICITY":0.0001327,"INCLINATION":53.2173,"RA_OF_ASC_NODE":90.703,"ARG_OF_PERICENTER":90.0496,"MEAN_ANOMALY":270.0649,"EPHEMERIS_TYPE":0,"CLASSIFICATION_TYPE":"U","NORAD_CAT_ID":52107,"ELEMENT_SET_NO":999,"REV_AT_EPOCH":22039,"BSTAR":9.2139e-6,"MEAN_MOTION_DOT":-1.41e-6,"MEAN_MOTION_DDOT":0},{"OBJECT_NAME":"STARLINK-3698","OBJECT_ID":"2022-029W","EPOCH":"2026-03-07T02:47:55.206816","MEAN_MOTION":15.08835881,"ECCENTRICITY":0.0001214,"INCLINATION":53.2162,"RA_OF_ASC_NODE":90.6711,"ARG_OF_PERICENTER":83.5977,"MEAN_ANOMALY":276.5153,"EPHEMERIS_TYPE":0,"CLASSIFICATION_TYPE":"U","NORAD_CAT_ID":52108,"ELEMENT_SET_NO":999,"REV_AT_EPOCH":22039,"BSTAR":0.00011802,"MEAN_MOTION_DOT":1.591e-5,"MEAN_MOTION_DDOT":0},{"OBJECT_NAME":"STARLINK-3687","OBJECT_ID":"2022-029Y","EPOCH":"2026-03-06T10:48:45.552672","MEAN_MOTION":15.08836037,"ECCENTRICITY":0.00012184,"INCLINATION":53.2164,"RA_OF_ASC_NODE":93.6586,"ARG_OF_PERICENTER":69.6255,"MEAN_ANOMALY":290.4868,"EPHEMERIS_TYPE":0,"CLASSIFICATION_TYPE":"U","NORAD_CAT_ID":52110,"ELEMENT_SET_NO":999,"REV_AT_EPOCH":22029,"BSTAR":1.1754607e-5,"MEAN_MOTION_DOT":-1.01e-6,"MEAN_MOTION_DDOT":0},{"OBJECT_NAME":"STARLINK-3708","OBJECT_ID":"2022-029Z","EPOCH":"2026-03-06T08:52:10.187904","MEAN_MOTION":15.08843653,"ECCENTRICITY":0.00012339,"INCLINATION":53.2166,"RA_OF_ASC_NODE":94.0233,"ARG_OF_PERICENTER":93.7677,"MEAN_ANOMALY":266.3456,"EPHEMERIS_TYPE":0,"CLASSIFICATION_TYPE":"U","NORAD_CAT_ID":52111,"ELEMENT_SET_NO":999,"REV_AT_EPOCH":22028,"BSTAR":3.3910257e-5,"MEAN_MOTION_DOT":2.52e-6,"MEAN_MOTION_DDOT":0},{"OBJECT_NAME":"STARLINK-3734","OBJECT_ID":"2022-029AA","EPOCH":"2026-03-07T00:56:37.838976","MEAN_MOTION":15.08834132,"ECCENTRICITY":0.0001092,"INCLINATION":53.2167,"RA_OF_ASC_NODE":91.0171,"ARG_OF_PERICENTER":83.6971,"MEAN_ANOMALY":276.4146,"EPHEMERIS_TYPE":0,"CLASSIFICATION_TYPE":"U","NORAD_CAT_ID":52112,"ELEMENT_SET_NO":999,"REV_AT_EPOCH":22038,"BSTAR":6.6875e-5,"MEAN_MOTION_DOT":7.77e-6,"MEAN_MOTION_DDOT":0},{"OBJECT_NAME":"STARLINK-3736","OBJECT_ID":"2022-029AB","EPOCH":"2026-03-07T02:10:49.076256","MEAN_MOTION":15.08833603,"ECCENTRICITY":0.0001306,"INCLINATION":53.2173,"RA_OF_ASC_NODE":90.7879,"ARG_OF_PERICENTER":94.6406,"MEAN_ANOMALY":265.4735,"EPHEMERIS_TYPE":0,"CLASSIFICATION_TYPE":"U","NORAD_CAT_ID":52113,"ELEMENT_SET_NO":999,"REV_AT_EPOCH":22039,"BSTAR":3.781e-5,"MEAN_MOTION_DOT":3.14e-6,"MEAN_MOTION_DDOT":0}]
