STARLINK-3673           
1 52093U 22029F   26065.36224699 -.00000025  00000+0  16537-4 0  9997
2 52093  53.2153 104.0707 0001565  85.3599 274.7572 15.08849988220159
STARLINK-3714           
1 52094U 22029G   26065.36496182  .00001430  00000+0  10793-3 0  9993
2 52094  53.2168 104.0482 0001207  63.1156 296.9959 15.08842415220155
STARLINK-3701           
1 52095U 22029H   26066.08258720  .00014943  00000+0  95490-3 0  9998
2 52095  53.2166 100.8269 0001333  74.9176 285.1963 15.08843680220265
STARLINK-3717           
1 52096U 22029J   26066.06140241  .00000307  00000+0  37366-4 0  9993
2 52096  53.2173  90.9180 0001650  89.4725 270.6456 15.08841955220380
STARLINK-3665           
1 52098U 22029L   26066.08624178  .00000730  00000+0  63978-4 0  9991
2 52098  53.2158 100.8081 0001307  93.5329 266.5812 15.08840768220269
STARLINK-3702           
1 52100U 22029N   26065.48273602  .00001130  00000+0  89118-4 0  9999
2 52100  53.2189 103.5219 0001720 100.6633 259.4553 15.08825123220178
STARLINK-3703           
1 52101U 22029P   26065.36130959  .00000027  00000+0  19787-4 0  9993
2 52101  53.2178 104.2569 0001437  91.2642 268.8515 15.08841656220141
STARLINK-3709           
1 52102U 22029Q   26066.08076273 -.00001071  00000+0 -49200-4 0  9997
2 52102  53.2164  90.8330 0001279  95.6475 264.4663 15.08842809220393
STARLINK-3705           
1 52103U 22029R   26066.12028489  .00001448  00000+0  10904-3 0  9993
2 52103  53.2164  90.6556 0001243  88.3212 271.7923 15.08842818220391
STARLINK-3706           
1 52105U 22029T   26066.04764324  .00001159  00000+0  90927-4 0  9994
2 52105  53.2170  90.9815 0001244  84.7751 275.3383 15.08836500220380
STARLINK-3670           
1 52106U 22029U   26065.80288545  .00000796  00000+0  68080-4 0  9995
2 52106  53.2167 102.0804 0001239  92.4162 267.6972 15.08837690220217
STARLINK-3658           
1 52107U 22029V   26066.10924553 -.00000141  00000+0  92139-5 0  9994
2 52107  53.2173  90.7030 0001327  90.0496 270.0649 15.08840457220394
STARLINK-3698           
1 52108U 22029W   26066.11661119  .00001591  00000+0  11802-3 0  9997
2 52108  53.2162  90.6711 0001214  83.5977 276.5153 15.08835881220390
STARLINK-3687           
1 52110U 22029Y   26065.45052723 -.00000101  00000+0  11755-4 0  9996
2 52110  53.2164  93.6586 0001218  69.6255 290.4868 15.08836037220297
STARLINK-3708           
1 52111U 22029Z   26065.36956236  .00000252  00000+0  33910-4 0  9992
2 52111  53.2166  94.0233 0001233  93.7677 266.3456 15.08843653220283
STARLINK-3734           
1 52112U 22029AA  26066.03932684  .00000777  00000+0  66875-4 0  9997
2 52112  53.2167  91.0171 0001092  83.6971 276.4146 15.08834132220382
STARLINK-3736           
1 52113U 22029AB  26066.09084579  .00000314  00000+0  37810-4 0  9999
2 52113  53.2173  90.7879 0001306  94.6406 265.4735 15.08833603220399
